[Satellite]
VERSION=1.1
NAME=CALIPSO
NICKNAME=CALIPSO
TLE1=1 29108U 06016B   20157.87451956  .00000094  00000-0  27947-4 0  9999
TLE2=2 29108  98.2296 104.9541 0001369  84.9039 275.2318 14.62414601750621
STATUS=0
